QIANFAN-73              
1 63159U 25046A   25317.79417544  .00000081  00000+0  10754-3 0  9998
2 63159  88.9753 323.0222 0014179 200.9232 159.1341 13.50973313 43501
QIANFAN-74              
1 63160U 25046B   25317.77765529  .00000083  00000+0  10984-3 0  9994
2 63160  88.9754 322.9124 0002025  89.3929 270.7454 13.50975296 43565
QIANFAN-75              
1 63161U 25046C   25317.83912000  .00000163  00000+0  23334-3 0  9992
2 63161  88.9756 323.1393 0015212 204.5225 155.5205 13.50987090 43447
QIANFAN-76              
1 63162U 25046D   25317.83534824 -.00000027  00000+0 -59724-4 0  9991
2 63162  88.9750 323.1206 0012789 204.3212 155.7337 13.50967816 43458
QIANFAN-77              
1 63163U 25046E   25317.80124022  .00000302  00000+0  21044-3 0  9991
2 63163  88.9755 321.3684 0015249 163.3648 196.8032 13.96083784 44413
QIANFAN-78              
1 63164U 25046F   25317.80238719  .00000057  00000+0  70052-4 0  9992
2 63164  88.9754 322.9882 0014063 207.2321 152.8094 13.50974575 43527
QIANFAN-79              
1 63165U 25046G   25317.83107500  .00000101  00000+0  13770-3 0  9992
2 63165  88.9758 323.0916 0013811 205.1728 154.8752 13.50974980 43477
QIANFAN-80              
1 63166U 25046H   25317.84760630  .00000131  00000+0  18358-3 0  9993
2 63166  88.9755 322.7974 0012656 209.3131 150.7311 13.50978217 43636
